#dP2021  4 26  0  0  0.00000000      97 __u+U IGS14 FIT  IAC
## 2155  86400.00000000   900.00000000 59330 0.0000000000000
+  123   C01C02C03C04C05C06C07C08C09C10C11C12C13C14C16C19C20
+        C21C22C23C24C25C26C27C28C29C30C32C33C34C35C36C37C38
+        C39C40C41C42C43C44C45C46C60E01E02E03E04E05E07E08E09
+        E11E12E13E14E15E18E19E21E24E25E26E27E30E31E33E36G01
+        G02G03G04G05G06G07G08G09G10G12G13G14G15G16G17G18G19
+        G20G21G22G23G24G25G26G27G28G29G30G31G32J01J02J03J07
+        R01R02R03R04R05R07R08R09R11R12R13R14R15R16R17R18R19
+        R20R21R22R24  0  0  0  0  0  0  0  0  0  0  0  0  0
++         0  0  0  0  0  0  0  0  0  0  0  0  0  0  0  0  0
++         0  0  0  0  0  0  0  0  0  0  0  0  0  0  0  0  0
++         0  0  0  0  0  0  0  0  0  0  0  0  0  0  0  0  0
++         0  0  0  0  0  0  0  0  0  0  0  0  0  0  0  0  0
++         0  0  0  0  0  0  0  0  0  0  0  0  0  0  0  0  0
++         0  0  0  0  0  0  0  0  0  0  0  0  0  0  0  0  0
++         0  0  0  0  0  0  0  0  0  0  0  0  0  0  0  0  0
++         0  0  0  0  0  0  0  0  0  0  0  0  0  0  0  0  0
%c M  cc GPS ccc cccc cccc cccc cccc ccccc ccccc ccccc ccccc
%c cc cc ccc ccc cccc cccc cccc cccc ccccc ccccc ccccc ccccc
%f  1.2500000  1.025000000  0.00000000000  0.000000000000000
%f  0.0000000  0.000000000  0.00000000000  0.000000000000000
%i    0    0    0    0      0      0      0      0         0
%i    0    0    0    0      0      0      0      0         0
/* INFORMATION & ANALYSIS CENTER (IAC)            FINAL DATA
/* S/V CLOCKS ARE ALIGNED TO GNSS TIME                      
/* G:C1WC2W R:C1PC2P E:C1XC5X C:C2IC6I J:C1CC2S             
/* PCV:IGS14_2148 OL/AL:FES2004  NONE     YN ORB:CoN CLK:CoN
*  2021 04 26 23 30  0.00000000
PC01 -34345.856210  24488.787628    107.310177   -522.775722
PC02   4517.325915  41914.631805   -597.017830    726.651883
PC03 -14731.104393  39517.280345  -1100.290870   -363.366245
PC04 -39609.482698  14470.966728   -302.267066   -121.083492
PC05      0.000000      0.000000      0.000000   -167.387744
PC06 -24268.391553  28459.858766  19444.761293    320.494874
PC07 -12628.148023  36438.016862  17889.014031   -161.489383
PC08 -10362.100883  18505.738602 -36331.580924   -890.798810
PC09 -10084.726311  28204.073423  29802.157859    566.753455
PC10  -1706.040853  42081.338834   5193.312455    -50.836610
PC11 -23460.659250  13467.609077  -6870.311735    307.005665
PC12 -25704.775198   2331.712743  10657.502849    909.624117
PC13   3657.990054  26057.848131 -32773.604496    237.564115
PC14 -13847.086261  18196.682838 -16006.218557    573.294409
PC16 -21503.815606  28865.759234  21899.385666   -804.880988
PC19   9231.642957 -25043.494004   8140.757310    813.272035
PC20  15877.234523  -9966.877848  20682.819979   -944.055066
PC21 -13329.052364 -11813.552863 -21452.514638   -947.251042
PC22  -2957.946098 -26029.368146  -9560.541801   -962.575074
PC23  11486.892698  21566.470346  13481.170956   -894.754517
PC24 -21364.575114   -691.619539  17942.320813   -827.794296
PC25  -6022.792605  15490.390262  22409.060591   -926.237262
PC26 -23573.773596 -14443.212975   3924.075788    915.373472
PC27  21064.136781   5042.124768 -17628.889301    522.006016
PC28   3193.186036  15668.255837 -22870.705965    -81.476591
PC29  15817.265291 -17700.659667  14667.759139    384.272189
PC30  26251.966037  -9158.985684  -2556.195321    463.346558
PC32  13446.002011  11746.944597  21470.790921   -941.991017
PC33  -9110.103929  25098.492644  -8137.622528   -942.326633
PC34 -26136.236423   9561.887386   1827.577536   -686.820796
PC35  -3354.017136 -15751.345520  22785.111697   -308.358107
PC36   6703.023866 -15122.563013 -22452.935197   -729.106049
PC37  22973.714753  15520.310033  -3077.406158   -906.385118
PC38  -6562.492835  23160.012035 -34591.257762    144.879373
PC39 -16990.345056  30287.062348  23809.576299     30.644335
PC40  -7114.849302  40889.353271   7825.917204    155.121700
PC41   2912.812715  26146.225443   9358.900710   -946.517512
PC42 -15976.218126   9251.893627 -20882.539140   -920.028013
PC43 -16280.513905  17599.695698 -14267.692588   -703.624365
PC44 -21083.175010  -4576.264645  17669.303154    158.043866
PC45 -11682.279846 -21493.737646 -13443.913787    424.482153
PC46  20800.570792   -182.636370 -18582.430731    297.918238
PC60   7286.243665  41522.933485  -1350.009418      0.541836
PE01  17352.013497  21675.412667 -10253.282372  -1095.399118
PE02 -17392.556171 -21610.148746  10347.172313    214.994771
PE03 -12559.301140 -11763.842326 -24078.616307   -424.517064
PE04  21728.166615  -7860.576016  18510.175194   -758.525331
PE05   4142.265604 -24808.679979 -15595.712411   -285.638183
PE07 -18229.811054  23253.329853  -1862.196022   -530.557258
PE08 -21650.057594   8371.799989 -18368.204330   6011.425954
PE09  18028.203362 -23402.020669   1737.605663   5687.541921
PE11  18145.490738 -11680.862608  20263.447337   6050.049093
PE12  29377.458609    164.464856   3730.818062   5239.855212
PE13 -18466.588088  11492.998929 -20067.266926    415.581332
PE14   3068.082432 -18162.400246  14594.882567  -1410.748145
PE15 -29353.355184    -55.746447  -3762.535691    817.385105
PE18    967.974547  23272.427329 -22754.105498  -1543.674795
PE19  10762.534523  13732.923676  23921.488791    262.236518
PE21   6778.767411  27716.508573   7863.660522   -661.585875
PE24   8837.968836 -17283.774348 -22367.923410   -868.564320
PE25  -6637.972616 -27704.242780  -8046.602135   -532.086959
PE26   4095.544411  16426.872923 -24278.545224   1878.497566
PE27  -8186.886068  17936.424122  22074.147559    -19.761095
PE30 -18485.054724  -3396.982509  22859.246959   2992.809476
PE31  18226.389000   2307.515507 -23204.131501   -480.561876
PE33  22953.662473  11540.866972 -14709.235277   -467.963291
PE36  -3253.542375 -16252.551976  24525.935980   -199.116046
PG01  19723.280491  14135.068267 -11456.683582    705.553339
PG02   3705.188673 -15024.195523  22243.956625   -599.198964
PG03  12730.170941  20445.759990  11237.965095   -147.881663
PG04  10807.341127  10763.268891  21754.204222   -193.749250
PG05  -4269.483280 -25814.297706   3805.445502    -40.230675
PG06  16419.240619  -8371.402182  19210.027287     10.438387
PG07  25816.499474   7156.964603  -1164.513371    133.972831
PG08   2722.768631  16839.718699 -20282.592513    -18.988515
PG09  18832.566682    204.994108  18679.881903   -341.687721
PG10 -13157.156035   8253.236849 -21394.397215   -110.115624
PG12  -9823.329789 -23000.206539   8904.052963    -33.160074
PG13   7396.034811 -19394.415276 -16626.875016    124.789232
PG14  13958.635974  -7296.900326 -21394.827467     92.631814
PG15  -5475.225474 -16800.920304 -20095.607148   -153.434615
PG16  -1240.315510  25270.711090   7009.941509   -315.932686
PG17  22150.246984 -13122.365976  -6096.684163    432.908976
PG18 -25642.564535  -4314.221076  -5582.217710    351.395990
PG19  20407.823231 -16800.056879   1594.343628     -7.689859
PG20 -15651.221525 -18971.916594 -10362.751694    522.775239
PG21  14088.718928  14961.102758 -16368.918652    113.933882
PG22   9989.014303  24652.676499   2017.949055   -628.542178
PG23 -16027.941547  -4127.698891 -20801.778997    111.061982
PG24 -15869.795651 -15243.273394 -15393.003458     38.320592
PG25 -15563.129005 -11999.956120  17728.282890    126.176162
PG26  -5953.251935  20542.056050  15523.027024     77.548183
PG27  -8563.456875  20895.082647 -13849.918811   -119.832443
PG28  12160.600249 -11689.619606 -20029.769234    580.601558
PG29 -18599.730892  -1093.193853  18897.474035   -336.958013
PG30  22759.408776  -2932.077708 -13514.599496   -418.272006
PG31 -14373.717982  10093.074149  19973.606677   -113.909832
PG32 -21001.890869  15348.811017  -4782.585500     21.945694
PJ01 -24259.668720  31294.514112  -9899.151708   -370.675866
PJ02 -24472.556991  23542.374492  29842.899092      6.497817
PJ03 -35605.431807  20062.872376  -5712.715236     -4.174563
PJ07 -25378.218142  33667.629080     48.030402     -0.023399
PR01   2057.369043  19479.547427  16356.649537     78.509601
PR02  11511.478478   -254.449882  22813.101948    476.360661
PR03  12853.483327 -17274.185146  13764.920557     34.897854
PR04   6972.988788 -24364.560537  -2889.921882     84.172496
PR05  -2689.582237 -17910.435397 -17955.633118     70.674221
PR07 -12711.817203  17742.952206 -13122.877153    -42.522830
PR08  -6831.122645  24378.270718   3098.236991    -58.727996
PR09 -18541.170380 -10256.335183  14163.440911    -10.073318
PR11   3633.111895  17104.635036  18584.655119     -0.824382
PR12  15647.794517  19914.094531   2972.032691    224.108377
PR13  18571.431857  10862.310539 -13721.958313    -53.972631
PR14  10286.157597  -4961.347098 -22801.508524     63.592487
PR15  -3692.153492 -17436.093580 -18233.021262    104.142958
PR16 -16578.331304 -19382.378036  -1950.694889    -14.326516
PR17  22601.415335  -8227.446229   8452.794019    419.162108
PR18   9289.767350 -11275.958941  20937.765458     74.505299
PR19  -8028.950306  -8841.211457  22536.178985   -141.377646
PR20 -23553.865536   -627.878487   9714.843617    -48.047709
PR21 -22059.137566   8523.859085  -9589.584220   -204.650010
PR22  -8075.953687  11174.904883 -21451.980923   -109.800452
PR24  23888.526717     82.186473  -8921.057758     40.389917
EOF
